[Satellite]
VERSION=1.1
NAME=WORLDVIEW-4 (WV-4)
NICKNAME=WORLDVIEW-4 (WV-4)
TLE1=1 41848U 16067A   17186.19695728  .00000073  00000-0  14982-4 0  9993
TLE2=2 41848  97.9462 260.1507 0001994  41.0163 319.1201 14.84750070 34935
